[{"OBJECT_NAME":"ORBCOMM FM04","OBJECT_ID":"1998-007C","EPOCH":"2026-03-09T14:44:15.821664","MEAN_MOTION":14.35529153,"ECCENTRICITY":0.0038795,"INCLINATION":107.9614,"RA_OF_ASC_NODE":324.5497,"ARG_OF_PERICENTER":142.9338,"MEAN_ANOMALY":217.4493,"EPHEMERIS_TYPE":0,"CLASSIFICATION_TYPE":"U","NORAD_CAT_ID":25159,"ELEMENT_SET_NO":999,"REV_AT_EPOCH":46230,"BSTAR":0.0004125,"MEAN_MOTION_DOT":1.067e-5,"MEAN_MOTION_DDOT":0},{"OBJECT_NAME":"FENGYUN 1C DEB","OBJECT_ID":"1999-025BHR","EPOCH":"2026-02-24T21:35:26.092320","MEAN_MOTION":14.3228195,"ECCENTRICITY":0.0055586,"INCLINATION":98.9764,"RA_OF_ASC_NODE":291.089,"ARG_OF_PERICENTER":37.185,"MEAN_ANOMALY":323.3162,"EPHEMERIS_TYPE":0,"CLASSIFICATION_TYPE":"U","NORAD_CAT_ID":31163,"ELEMENT_SET_NO":999,"REV_AT_EPOCH":65803,"BSTAR":0.00040572,"MEAN_MOTION_DOT":1.067e-5,"MEAN_MOTION_DDOT":0}]
